NORAD_CAT_ID,OBJECT_NAME,OBJECT_TYPE,EPOCH,MEAN_MOTION,ECCENTRICITY,INCLINATION,RA_OF_ASC_NODE,ARG_OF_PERICENTER,MEAN_ANOMALY,BSTAR,MEAN_MOTION_DOT,MEAN_MOTION_DDOT,TLE_LINE0,TLE_LINE1,TLE_LINE2,SEMIMAJOR_AXIS,PERIOD,APOGEE,PERIGEE,DECAYED
52278.0,STARLINK-3780,PAYLOAD,2023-12-07 15:14:13,15.08845056,0.0001157,53.216,203.9588,83.8295,276.2829,0.00050672,7.787e-05,0.0,0 STARLINK-3780,1 52278U 22041T   23341.63488060  .00007787  00000-0  50672-3 0  9993,2 52278  53.2160 203.9588 0001157  83.8295 276.2829 15.08845056 90116,6917.865,95.437,540.53,538.93,0.0
52278.0,STARLINK-3780,PAYLOAD,2023-12-07 18:24:59,15.08846623,0.0001238,53.2159,203.3638,84.5687,275.5447,0.00046499,7.121e-05,0.0,0 STARLINK-3780,1 52278U 22041T   23341.76735991  .00007121  00000-0  46499-3 0  9999,2 52278  53.2159 203.3638 0001238  84.5687 275.5447 15.08846623 91353,6917.86,95.437,540.582,538.869,0.0
52278.0,STARLINK-3780,PAYLOAD,2023-12-08 00:46:32,15.0883824,0.000188,53.2152,202.1708,104.9797,255.1404,0.00020113,2.914e-05,0.0,0 STARLINK-3780,1 52278U 22041T   23342.03232038  .00002914  00000-0  20113-3 0  9994,2 52278  53.2152 202.1708 0001880 104.9797 255.1404 15.08838240 91390,6917.886,95.438,541.051,538.45,0.0
52278.0,STARLINK-3780,PAYLOAD,2023-12-10 19:32:44,15.08841205,0.0001574,53.2146,189.6826,105.8423,254.2742,5.2903e-05,5.54e-06,0.0,0 STARLINK-3780,1 52278U 22041T   23344.81439873  .00000554  00000-0  52903-4 0  9999,2 52278  53.2146 189.6826 0001574 105.8423 254.2742 15.08841205 91816,6917.877,95.437,540.831,538.653,0.0
52278.0,STARLINK-3780,PAYLOAD,2023-12-10 21:08:07,15.08840911,0.0001377,53.2158,189.387,92.5653,267.5496,5.4278e-05,5.76e-06,0.0,0 STARLINK-3780,1 52278U 22041T   23344.88064060  .00000576  00000-0  54278-4 0  9999,2 52278  53.2158 189.3870 0001377  92.5653 267.5496 15.08840911 90605,6917.878,95.437,540.695,538.79,0.0
52278.0,STARLINK-3780,PAYLOAD,2023-12-11 19:23:31,15.08835665,0.0001442,53.2161,185.2256,97.3139,262.8017,7.8301e-05,9.58e-06,0.0,0 STARLINK-3780,1 52278U 22041T   23345.80800436  .00000958  00000-0  78301-4 0  9994,2 52278  53.2161 185.2256 0001442  97.3139 262.8017 15.08835665 91964,6917.894,95.438,540.756,538.761,0.0
52278.0,STARLINK-3780,PAYLOAD,2023-12-11 20:58:54,15.0883592,0.0001441,53.216,184.9268,93.5777,266.538,7.9901e-05,9.84e-06,0.0,0 STARLINK-3780,1 52278U 22041T   23345.87424364  .00000984  00000-0  79901-4 0  9999,2 52278  53.2160 184.9268 0001441  93.5777 266.5380 15.08835920 90751,6917.893,95.438,540.755,538.761,0.0
52278.0,STARLINK-3780,PAYLOAD,2023-12-12 20:49:41,15.08840083,0.0001447,53.216,180.4677,94.6704,265.4453,9.5309e-05,1.229e-05,0.0,0 STARLINK-3780,1 52278U 22041T   23346.86784424  .00001229  00000-0  95309-4 0  9998,2 52278  53.2160 180.4677 0001447  94.6704 265.4453 15.08840083 90906,6917.88,95.438,540.746,538.744,0.0
52278.0,STARLINK-3780,PAYLOAD,2023-12-13 19:05:05,15.08843166,0.0001451,53.2156,176.3068,92.3726,267.7432,0.00010435,1.373e-05,0.0,0 STARLINK-3780,1 52278U 22041T   23347.79520260  .00001373  00000-0  10435-3 0  9993,2 52278  53.2156 176.3068 0001451  92.3726 267.7432 15.08843166 91046,6917.871,95.437,540.739,538.732,0.0
52278.0,STARLINK-3780,PAYLOAD,2023-12-14 18:55:52,15.08842578,0.0001454,53.2153,171.8476,91.9372,268.1786,7.4261e-05,8.94e-06,0.0,0 STARLINK-3780,1 52278U 22041T   23348.78880396  .00000894  00000-0  74261-4 0  9997,2 52278  53.2153 171.8476 0001454  91.9372 268.1786 15.08842578 92416,6917.873,95.437,540.743,538.732,0.0
52278.0,STARLINK-3780,PAYLOAD,2023-12-15 18:46:39,15.08837883,0.0001465,53.2153,167.3817,93.3505,266.7654,2.267e-05,7.3e-07,0.0,0 STARLINK-3780,1 52278U 22041T   23349.78240737  .00000073  00000-0  22670-4 0  9993,2 52278  53.2153 167.3817 0001465  93.3505 266.7654 15.08837883 92568,6917.887,95.438,540.765,538.738,0.0
52278.0,STARLINK-3780,PAYLOAD,2023-12-16 18:37:26,15.08843904,0.0001397,53.2151,162.9219,94.1345,265.9807,0.0001166,1.568e-05,0.0,0 STARLINK-3780,1 52278U 22041T   23350.77600139  .00001568  00000-0  11660-3 0  9996,2 52278  53.2151 162.9219 0001397  94.1345 265.9807 15.08843904 92717,6917.868,95.437,540.7,538.767,0.0
52278.0,STARLINK-3780,PAYLOAD,2023-12-17 13:42:05,15.08831503,0.0001442,53.2157,159.3521,101.7445,258.3709,1.7611e-05,-8e-08,0.0,0 STARLINK-3780,1 52278U 22041T   23351.57089539 -.00000008  00000-0  17611-4 0  9992,2 52278  53.2157 159.3521 0001442 101.7445 258.3709 15.08831503 91613,6917.906,95.438,540.769,538.774,0.0
52278.0,STARLINK-3780,PAYLOAD,2023-12-17 16:52:51,15.08832471,0.0001403,53.2158,158.7577,95.0772,265.038,3.413e-05,2.55e-06,0.0,0 STARLINK-3780,1 52278U 22041T   23351.70337553  .00000255  00000-0  34130-4 0  9997,2 52278  53.2158 158.7577 0001403  95.0772 265.0380 15.08832471 92855,6917.903,95.438,540.739,538.798,0.0
52278.0,STARLINK-3780,PAYLOAD,2023-12-18 18:19:01,15.08843478,0.000145,53.2157,153.9991,91.6321,268.4838,0.00010303,1.352e-05,0.0,0 STARLINK-3780,1 52278U 22041T   23352.76320997  .00001352  00000-0  10303-3 0  9992,2 52278  53.2157 153.9991 0001450  91.6321 268.4838 15.08843478 93018,6917.87,95.437,540.738,538.732,0.0
52278.0,STARLINK-3780,PAYLOAD,2023-12-19 18:09:48,15.0884682,0.0001503,53.2161,149.5393,77.6441,282.4719,0.00020807,3.026e-05,0.0,0 STARLINK-3780,1 52278U 22041T   23353.75681006  .00003026  00000-0  20807-3 0  9993,2 52278  53.2161 149.5393 0001503  77.6441 282.4719 15.08846820 91944,6917.86,95.437,540.764,538.685,0.0
52278.0,STARLINK-3780,PAYLOAD,2023-12-20 18:00:35,15.0884828,0.0001593,53.2168,145.076,71.6192,288.4973,0.00013808,1.911e-05,0.0,0 STARLINK-3780,1 52278U 22041T   23354.75040894  .00001911  00000-0  13808-3 0  9992,2 52278  53.2168 145.0760 0001593  71.6192 288.4973 15.08848280 93319,6917.855,95.437,540.822,538.618,0.0
52278.0,STARLINK-3780,PAYLOAD,2023-12-21 14:40:36,15.08846107,0.0001537,53.2158,141.2129,65.8016,294.3136,4.3714e-05,4.08e-06,0.0,0 STARLINK-3780,1 52278U 22041T   23355.61152947  .00000408  00000-0  43714-4 0  9991,2 52278  53.2158 141.2129 0001537  65.8016 294.3136 15.08846107 92225,6917.862,95.437,540.79,538.663,0.0
52278.0,STARLINK-3780,PAYLOAD,2023-12-21 16:15:59,15.08846185,0.0001487,53.2156,140.9162,73.1169,286.9986,9.4437e-05,1.216e-05,0.0,0 STARLINK-3780,1 52278U 22041T   23355.67776928  .00001216  00000-0  94437-4 0  9994,2 52278  53.2156 140.9162 0001487  73.1169 286.9986 15.08846185 92238,6917.861,95.437,540.755,538.698,0.0
52278.0,STARLINK-3780,PAYLOAD,2023-12-22 14:31:23,15.08842993,0.0001364,53.2157,136.7524,80.3627,279.7519,0.00012368,1.681e-05,0.0,0 STARLINK-3780,1 52278U 22041T   23356.60512980  .00001681  00000-0  12368-3 0  9992,2 52278  53.2157 136.7524 0001364  80.3627 279.7519 15.08842993 92377,6917.871,95.437,540.68,538.793,0.0
52278.0,STARLINK-3780,PAYLOAD,2023-12-22 16:06:46,15.08845179,0.0001446,53.2157,136.4549,76.2727,283.8426,0.00011005,1.464e-05,0.0,0 STARLINK-3780,1 52278U 22041T   23356.67136888  .00001464  00000-0  11005-3 0  9994,2 52278  53.2157 136.4549 0001446  76.2727 283.8426 15.08845179 92380,6917.865,95.437,540.73,538.729,0.0
52278.0,STARLINK-3780,PAYLOAD,2023-12-23 09:36:00,15.08840474,0.0001502,53.2162,133.1818,87.3828,272.7336,-4.0516e-05,-9.33e-06,0.0,0 STARLINK-3780,1 52278U 22041T   23357.40001155 -.00000933  00000-0 -40516-4 0  9996,2 52278  53.2162 133.1818 0001502  87.3828 272.7336 15.08840474 93715,6917.879,95.438,540.783,538.705,0.0
52278.0,STARLINK-3780,PAYLOAD,2023-12-23 14:22:11,15.08787192,0.0001346,53.2178,132.2945,113.7443,246.369,0.00082172,0.00012795,0.0,0 STARLINK-3780,1 52278U 22041T   23357.59874143  .00012795  00000-0  82172-3 0  9991,2 52278  53.2178 132.2945 0001346 113.7443 246.3690 15.08787192 92521,6918.042,95.441,540.838,538.976,0.0
52278.0,STARLINK-3780,PAYLOAD,2023-12-23 15:57:35,15.08761019,0.000151,53.2173,131.9967,106.3679,253.7479,0.0011904,0.00018667,0.0,0 STARLINK-3780,1 52278U 22041T   23357.66498952  .00018667  00000-0  11904-2 0  9997,2 52278  53.2173 131.9967 0001510 106.3679 253.7479 15.08761019 93751,6918.122,95.443,541.031,538.942,0.0
52278.0,STARLINK-3780,PAYLOAD,2023-12-24 09:26:46,15.08857191,0.000126,53.2172,128.7223,90.6633,269.4504,0.00014147,1.965e-05,0.0,0 STARLINK-3780,1 52278U 22041T   23358.39359580  .00001965  00000-0  14147-3 0  9997,2 52278  53.2172 128.7223 0001260  90.6633 269.4504 15.08857191 93868,6917.828,95.436,540.564,538.821,0.0
52278.0,STARLINK-3780,PAYLOAD,2023-12-24 14:12:58,15.0882055,0.0001585,53.2181,127.8348,101.6127,258.5043,-9.9464e-05,-1.87e-05,0.0,0 STARLINK-3780,1 52278U 22041T   23358.59234305 -.00001870  00000-0 -99464-4 0  9999,2 52278  53.2181 127.8348 0001585 101.6127 258.5043 15.08820550 92671,6917.94,95.439,540.901,538.708,0.0
52278.0,STARLINK-3780,PAYLOAD,2023-12-24 17:23:44,15.08825088,0.0001377,53.218,127.2398,92.3808,267.7342,-0.00011764,-2.159e-05,0.0,0 STARLINK-3780,1 52278U 22041T   23358.72482131 -.00002159  00000-0 -11764-3 0  9993,2 52278  53.2180 127.2398 0001377  92.3808 267.7342 15.08825088 93913,6917.926,95.438,540.744,538.838,0.0
52278.0,STARLINK-3780,PAYLOAD,2023-12-25 12:28:21,15.08837883,0.0001447,53.2175,123.6684,77.4145,282.7009,5.9777e-05,6.63e-06,0.0,0 STARLINK-3780,1 52278U 22041T   23359.51969667  .00000663  00000-0  59777-4 0  9998,2 52278  53.2175 123.6684 0001447  77.4145 282.7009 15.08837883 94038,6917.887,95.438,540.753,538.751,0.0
52278.0,STARLINK-3780,PAYLOAD,2023-12-25 14:03:44,15.08840396,0.0001489,53.2178,123.3727,81.5058,278.6103,9.3369e-05,1.198e-05,0.0,0 STARLINK-3780,1 52278U 22041T   23359.58593471  .00001198  00000-0  93369-4 0  9990,2 52278  53.2178 123.3727 0001489  81.5058 278.6103 15.08840396 92828,6917.879,95.438,540.774,538.714,0.0
52278.0,STARLINK-3780,PAYLOAD,2023-12-26 13:54:32,15.08822459,0.0001536,53.2173,118.9137,95.0,265.1167,0.00020967,3.049e-05,0.0,0 STARLINK-3780,1 52278U 22041T   23360.57954389  .00003049  00000-0  20967-3 0  9990,2 52278  53.2173 118.9137 0001536  95.0000 265.1167 15.08822459 92975,6917.934,95.439,540.862,538.736,0.0
